ONEWEB-0639             
1 55803U 23029H   26140.20716255  .00000005  00000+0 -19185-4 0  9991
2 55803  87.9145 310.5551 0001256  61.7006 298.4254 13.19725448155213
ONEWEB-0640             
1 55804U 23029J   26140.16287449 -.00000156  00000+0 -45552-3 0  9999
2 55804  87.8926 295.3351 0002204  79.3370 280.8008 13.14504255155736
ONEWEB-0641             
1 55805U 23029K   26140.20241547  .00000047  00000+0  84628-4 0  9999
2 55805  87.9154 310.5433 0001666  89.8377 270.2946 13.19726330155229
ONEWEB-0642             
1 55806U 23029L   26140.19767580 -.00000057  00000+0 -17553-3 0  9993
2 55806  87.9149 310.5578 0001114  73.7791 286.3464 13.19725110155211
ONEWEB-0643             
1 55807U 23029M   26140.36111102 -.00000029  00000+0 -11356-3 0  9990
2 55807  87.8930 295.2828 0001106  96.6158 263.5098 13.14502944155738
ONEWEB-0644             
1 55808U 23029N   26140.04129595  .00000012  00000+0 -24022-5 0  9998
2 55808  87.9146 310.5909 0001463  87.8091 272.3209 13.19726547155198
ONEWEB-0645             
1 55809U 23029P   26140.21505015 -.00000005  00000+0 -44924-4 0  9998
2 55809  87.9145 310.5532 0001770  77.6702 282.4629 13.19726025155219
ONEWEB-0646             
1 55810U 23029Q   26140.23243088  .00000006  00000+0 -18014-4 0  9992
2 55810  87.9145 310.5499 0001524  89.3905 270.7402 13.19726013155200
ONEWEB-0648             
1 55811U 23029R   26140.32940102  .00000159  00000+0  39559-3 0  9998
2 55811  87.8941 295.2599 0001464  64.5151 295.6130 13.14503530155739
ONEWEB-0649             
1 55812U 23029S   26140.48515048  .00000075  00000+0  15518-3 0  9999
2 55812  87.9147 310.4970 0001687  84.1347 275.9978 13.19725983155277
ONEWEB-0650             
1 55813U 23029T   26140.17714690 -.00000024  00000+0 -91319-4 0  9990
2 55813  87.9146 310.5613 0001422  83.8336 276.2958 13.19725737155205
ONEWEB-0652             
1 55814U 23029U   26140.15813467 -.00000198  00000+0 -56857-3 0  9990
2 55814  87.8928 295.3027 0001928 100.3516 259.7831 13.14503398155688
ONEWEB-0653             
1 55815U 23029V   26140.37061174 -.00000096  00000+0 -29238-3 0  9995
2 55815  87.8938 295.2572 0001888  95.3364 264.7981 13.14501531155749
ONEWEB-0654             
1 55816U 23029W   26140.13751073 -.00000131  00000+0 -38667-3 0  9990
2 55816  87.8937 295.3003 0002164 100.0583 260.0791 13.14500721155731
ONEWEB-0656             
1 55817U 23029X   26140.32592012 -.00000002  00000+0 -36500-4 0  9990
2 55817  87.9173 279.9848 0002261 103.9552 256.1833 13.20770366157473
ONEWEB-0657             
1 55818U 23029Y   26140.17241001  .00000001  00000+0 -28855-4 0  9995
2 55818  87.9145 310.5609 0001892 114.5885 245.5445 13.19725797155213
