[{"OBJECT_NAME":"ONEWEB-0639","OBJECT_ID":"2023-029H","EPOCH":"2026-05-20T04:58:18.844320","MEAN_MOTION":13.19725448,"ECCENTRICITY":0.0001256,"INCLINATION":87.9145,"RA_OF_ASC_NODE":310.5551,"ARG_OF_PERICENTER":61.7006,"MEAN_ANOMALY":298.4254,"EPHEMERIS_TYPE":0,"CLASSIFICATION_TYPE":"U","NORAD_CAT_ID":55803,"ELEMENT_SET_NO":999,"REV_AT_EPOCH":15521,"BSTAR":-1.9185e-05,"MEAN_MOTION_DOT":5e-08,"MEAN_MOTION_DDOT":0.0},{"OBJECT_NAME":"ONEWEB-0640","OBJECT_ID":"2023-029J","EPOCH":"2026-05-20T03:54:32.355936","MEAN_MOTION":13.14504255,"ECCENTRICITY":0.0002204,"INCLINATION":87.8926,"RA_OF_ASC_NODE":295.3351,"ARG_OF_PERICENTER":79.337,"MEAN_ANOMALY":280.8008,"EPHEMERIS_TYPE":0,"CLASSIFICATION_TYPE":"U","NORAD_CAT_ID":55804,"ELEMENT_SET_NO":999,"REV_AT_EPOCH":15573,"BSTAR":-0.00045552,"MEAN_MOTION_DOT":-1.56e-06,"MEAN_MOTION_DDOT":0.0},{"OBJECT_NAME":"ONEWEB-0641","OBJECT_ID":"2023-029K","EPOCH":"2026-05-20T04:51:28.696608","MEAN_MOTION":13.1972633,"ECCENTRICITY":0.0001666,"INCLINATION":87.9154,"RA_OF_ASC_NODE":310.5433,"ARG_OF_PERICENTER":89.8377,"MEAN_ANOMALY":270.2946,"EPHEMERIS_TYPE":0,"CLASSIFICATION_TYPE":"U","NORAD_CAT_ID":55805,"ELEMENT_SET_NO":999,"REV_AT_EPOCH":15522,"BSTAR":8.4628e-05,"MEAN_MOTION_DOT":4.7e-07,"MEAN_MOTION_DDOT":0.0},{"OBJECT_NAME":"ONEWEB-0642","OBJECT_ID":"2023-029L","EPOCH":"2026-05-20T04:44:39.189120","MEAN_MOTION":13.1972511,"ECCENTRICITY":0.0001114,"INCLINATION":87.9149,"RA_OF_ASC_NODE":310.5578,"ARG_OF_PERICENTER":73.7791,"MEAN_ANOMALY":286.3464,"EPHEMERIS_TYPE":0,"CLASSIFICATION_TYPE":"U","NORAD_CAT_ID":55806,"ELEMENT_SET_NO":999,"REV_AT_EPOCH":15521,"BSTAR":-0.00017553,"MEAN_MOTION_DOT":-5.7e-07,"MEAN_MOTION_DDOT":0.0},{"OBJECT_NAME":"ONEWEB-0643","OBJECT_ID":"2023-029M","EPOCH":"2026-05-20T08:39:59.992128","MEAN_MOTION":13.14502944,"ECCENTRICITY":0.0001106,"INCLINATION":87.893,"RA_OF_ASC_NODE":295.2828,"ARG_OF_PERICENTER":96.6158,"MEAN_ANOMALY":263.5098,"EPHEMERIS_TYPE":0,"CLASSIFICATION_TYPE":"U","NORAD_CAT_ID":55807,"ELEMENT_SET_NO":999,"REV_AT_EPOCH":15573,"BSTAR":-0.00011355999999999999,"MEAN_MOTION_DOT":-2.9e-07,"MEAN_MOTION_DDOT":0.0},{"OBJECT_NAME":"ONEWEB-0644","OBJECT_ID":"2023-029N","EPOCH":"2026-05-20T00:59:27.970080","MEAN_MOTION":13.19726547,"ECCENTRICITY":0.0001463,"INCLINATION":87.9146,"RA_OF_ASC_NODE":310.5909,"ARG_OF_PERICENTER":87.8091,"MEAN_ANOMALY":272.3209,"EPHEMERIS_TYPE":0,"CLASSIFICATION_TYPE":"U","NORAD_CAT_ID":55808,"ELEMENT_SET_NO":999,"REV_AT_EPOCH":15519,"BSTAR":-2.4022e-06,"MEAN_MOTION_DOT":1.2e-07,"MEAN_MOTION_DDOT":0.0},{"OBJECT_NAME":"ONEWEB-0645","OBJECT_ID":"2023-029P","EPOCH":"2026-05-20T05:09:40.332960","MEAN_MOTION":13.19726025,"ECCENTRICITY":0.000177,"INCLINATION":87.9145,"RA_OF_ASC_NODE":310.5532,"ARG_OF_PERICENTER":77.6702,"MEAN_ANOMALY":282.4629,"EPHEMERIS_TYPE":0,"CLASSIFICATION_TYPE":"U","NORAD_CAT_ID":55809,"ELEMENT_SET_NO":999,"REV_AT_EPOCH":15521,"BSTAR":-4.4924e-05,"MEAN_MOTION_DOT":-5e-08,"MEAN_MOTION_DDOT":0.0},{"OBJECT_NAME":"ONEWEB-0646","OBJECT_ID":"2023-029Q","EPOCH":"2026-05-20T05:34:42.028032","MEAN_MOTION":13.19726013,"ECCENTRICITY":0.0001524,"INCLINATION":87.9145,"RA_OF_ASC_NODE":310.5499,"ARG_OF_PERICENTER":89.3905,"MEAN_ANOMALY":270.7402,"EPHEMERIS_TYPE":0,"CLASSIFICATION_TYPE":"U","NORAD_CAT_ID":55810,"ELEMENT_SET_NO":999,"REV_AT_EPOCH":15520,"BSTAR":-1.8014e-05,"MEAN_MOTION_DOT":6e-08,"MEAN_MOTION_DDOT":0.0},{"OBJECT_NAME":"ONEWEB-0648","OBJECT_ID":"2023-029R","EPOCH":"2026-05-20T07:54:20.248128","MEAN_MOTION":13.1450353,"ECCENTRICITY":0.0001464,"INCLINATION":87.8941,"RA_OF_ASC_NODE":295.2599,"ARG_OF_PERICENTER":64.5151,"MEAN_ANOMALY":295.613,"EPHEMERIS_TYPE":0,"CLASSIFICATION_TYPE":"U","NORAD_CAT_ID":55811,"ELEMENT_SET_NO":999,"REV_AT_EPOCH":15573,"BSTAR":0.00039559,"MEAN_MOTION_DOT":1.59e-06,"MEAN_MOTION_DDOT":0.0},{"OBJECT_NAME":"ONEWEB-0649","OBJECT_ID":"2023-029S","EPOCH":"2026-05-20T11:38:37.001472","MEAN_MOTION":13.19725983,"ECCENTRICITY":0.0001687,"INCLINATION":87.9147,"RA_OF_ASC_NODE":310.497,"ARG_OF_PERICENTER":84.1347,"MEAN_ANOMALY":275.9978,"EPHEMERIS_TYPE":0,"CLASSIFICATION_TYPE":"U","NORAD_CAT_ID":55812,"ELEMENT_SET_NO":999,"REV_AT_EPOCH":15527,"BSTAR":0.00015518000000000002,"MEAN_MOTION_DOT":7.5e-07,"MEAN_MOTION_DDOT":0.0},{"OBJECT_NAME":"ONEWEB-0650","OBJECT_ID":"2023-029T","EPOCH":"2026-05-20T04:15:05.492160","MEAN_MOTION":13.19725737,"ECCENTRICITY":0.0001422,"INCLINATION":87.9146,"RA_OF_ASC_NODE":310.5613,"ARG_OF_PERICENTER":83.8336,"MEAN_ANOMALY":276.2958,"EPHEMERIS_TYPE":0,"CLASSIFICATION_TYPE":"U","NORAD_CAT_ID":55813,"ELEMENT_SET_NO":999,"REV_AT_EPOCH":15520,"BSTAR":-9.1319e-05,"MEAN_MOTION_DOT":-2.4e-07,"MEAN_MOTION_DDOT":0.0},{"OBJECT_NAME":"ONEWEB-0652","OBJECT_ID":"2023-029U","EPOCH":"2026-05-20T03:47:42.835488","MEAN_MOTION":13.14503398,"ECCENTRICITY":0.0001928,"INCLINATION":87.8928,"RA_OF_ASC_NODE":295.3027,"ARG_OF_PERICENTER":100.3516,"MEAN_ANOMALY":259.7831,"EPHEMERIS_TYPE":0,"CLASSIFICATION_TYPE":"U","NORAD_CAT_ID":55814,"ELEMENT_SET_NO":999,"REV_AT_EPOCH":15568,"BSTAR":-0.00056857,"MEAN_MOTION_DOT":-1.98e-06,"MEAN_MOTION_DDOT":0.0},{"OBJECT_NAME":"ONEWEB-0653","OBJECT_ID":"2023-029V","EPOCH":"2026-05-20T08:53:40.854336","MEAN_MOTION":13.14501531,"ECCENTRICITY":0.0001888,"INCLINATION":87.8938,"RA_OF_ASC_NODE":295.2572,"ARG_OF_PERICENTER":95.3364,"MEAN_ANOMALY":264.7981,"EPHEMERIS_TYPE":0,"CLASSIFICATION_TYPE":"U","NORAD_CAT_ID":55815,"ELEMENT_SET_NO":999,"REV_AT_EPOCH":15574,"BSTAR":-0.00029237999999999996,"MEAN_MOTION_DOT":-9.6e-07,"MEAN_MOTION_DDOT":0.0},{"OBJECT_NAME":"ONEWEB-0654","OBJECT_ID":"2023-029W","EPOCH":"2026-05-20T03:18:00.927072","MEAN_MOTION":13.14500721,"ECCENTRICITY":0.0002164,"INCLINATION":87.8937,"RA_OF_ASC_NODE":295.3003,"ARG_OF_PERICENTER":100.0583,"MEAN_ANOMALY":260.0791,"EPHEMERIS_TYPE":0,"CLASSIFICATION_TYPE":"U","NORAD_CAT_ID":55816,"ELEMENT_SET_NO":999,"REV_AT_EPOCH":15573,"BSTAR":-0.00038667000000000004,"MEAN_MOTION_DOT":-1.31e-06,"MEAN_MOTION_DDOT":0.0},{"OBJECT_NAME":"ONEWEB-0656","OBJECT_ID":"2023-029X","EPOCH":"2026-05-20T07:49:19.498368","MEAN_MOTION":13.20770366,"ECCENTRICITY":0.0002261,"INCLINATION":87.9173,"RA_OF_ASC_NODE":279.9848,"ARG_OF_PERICENTER":103.9552,"MEAN_ANOMALY":256.1833,"EPHEMERIS_TYPE":0,"CLASSIFICATION_TYPE":"U","NORAD_CAT_ID":55817,"ELEMENT_SET_NO":999,"REV_AT_EPOCH":15747,"BSTAR":-3.65e-05,"MEAN_MOTION_DOT":-2e-08,"MEAN_MOTION_DDOT":0.0},{"OBJECT_NAME":"ONEWEB-0657","OBJECT_ID":"2023-029Y","EPOCH":"2026-05-20T04:08:16.224864","MEAN_MOTION":13.19725797,"ECCENTRICITY":0.0001892,"INCLINATION":87.9145,"RA_OF_ASC_NODE":310.5609,"ARG_OF_PERICENTER":114.5885,"MEAN_ANOMALY":245.5445,"EPHEMERIS_TYPE":0,"CLASSIFICATION_TYPE":"U","NORAD_CAT_ID":55818,"ELEMENT_SET_NO":999,"REV_AT_EPOCH":15521,"BSTAR":-2.8854999999999997e-05,"MEAN_MOTION_DOT":1e-08,"MEAN_MOTION_DDOT":0.0}]